ONEWEB-0201             
1 48241U 21031AH  23312.50604812 -.00004616  00000+0 -12484-1 0  9991
2 48241  87.8935 119.1662 0002241  89.4239 270.7147 13.14538540123357
ONEWEB-0207             
1 48242U 21031AJ  23311.72049525 -.00000261  00000+0 -74297-3 0  9993
2 48242  87.8924 119.2881 0001838  97.9697 262.1641 13.14200459123161
ONEWEB-0208             
1 48243U 21031AK  23312.45907242  .00004676  00000+0  12602-1 0  9996
2 48243  87.8935 119.1578 0001798  83.9161 276.2173 13.14338170123272
ONEWEB-0200             
1 48244U 21031AL  23312.49886464 -.00000164  00000+0 -47731-3 0  9996
2 48244  87.8947 119.1434 0001324  99.8174 260.3105 13.14455164123218
ONEWEB-0217             
1 48245U 21031AM  23311.83002739  .00000140  00000+0  34320-3 0  9991
2 48245  87.8943 119.2609 0001225 100.8988 259.2279 13.14653548123075
ONEWEB-0211             
1 48767U 21045A   23312.46571864 -.00001457  00000+0 -39056-2 0  9999
2 48767  87.8970  88.6505 0001736  91.6810 268.4519 13.15556130120410
ONEWEB-0223             
1 48768U 21045B   23311.80339035 -.00000110  00000+0 -32655-3 0  9993
2 48768  87.8966  88.7864 0001081  94.4732 265.6521 13.15548879120325
ONEWEB-0230             
1 48769U 21045C   23311.77490086  .00000069  00000+0  14879-3 0  9993
2 48769  87.8977  88.8612 0001479  90.3882 269.7418 13.15554704120551
ONEWEB-0237             
1 48770U 21045D   23312.14407664  .00000249  00000+0  62663-3 0  9991
2 48770  87.8978  88.7063 0001337  76.9397 283.1882 13.15553723120349
ONEWEB-0235             
1 48771U 21045E   23311.81450088  .00000293  00000+0  74545-3 0  9994
2 48771  87.8968  88.8001 0001137  64.2442 295.8805 13.15547700120287
ONEWEB-0242             
1 48772U 21045F   23311.80815448 -.00000147  00000+0 -42363-3 0  9992
2 48772  87.8964  88.7915 0001479  87.7693 272.3607 13.15546751120335
ONEWEB-0241             
1 48773U 21045G   23312.09969308 -.00000085  00000+0 -26054-3 0  9990
2 48773  87.8980  88.7597 0001060 104.0054 256.1194 13.15542865120287
ONEWEB-0243             
1 48774U 21045H   23311.82716124  .00000166  00000+0  40627-3 0  9997
2 48774  87.8980  88.7709 0001350  78.3248 281.8033 13.15542604120270
ONEWEB-0222             
1 48775U 21045J   23311.43737123  .00000063  00000+0  13224-3 0  9996
2 48775  87.8967  88.8800 0001187  92.8665 267.2601 13.15555059119131
ONEWEB-0244             
1 48776U 21045K   23312.14091088  .00000353  00000+0  90481-3 0  9991
2 48776  87.8967  88.7219 0001678  84.0974 276.0348 13.15552750120915
ONEWEB-0247             
1 48777U 21045L   23311.75745765 -.00000208  00000+0 -58611-3 0  9996
2 48777  87.8979  88.8177 0001350  60.1483 299.9782 13.15550151120313
ONEWEB-0245             
1 48778U 21045M   23311.82873955  .00000233  00000+0  58570-3 0  9998
2 48778  87.8969  88.8118 0001330 103.6315 256.4964 13.15548444120292
ONEWEB-0229             
1 48779U 21045N   23311.44369677  .00000061  00000+0  12749-3 0  9995
2 48779  87.8969  88.8794 0001459  86.9923 273.1374 13.15547557119140
ONEWEB-0228             
1 48780U 21045P   23312.14012010  .00000285  00000+0  72287-3 0  9992
2 48780  87.8969  88.7193 0001425  92.8104 267.3189 13.15549782120282
ONEWEB-0232             
1 48781U 21045Q   23311.45167067  .00000869  00000+0  22730-2 0  9994
2 48781  87.8918  88.9099 0001518  89.1523 270.9781 13.15552878119388
ONEWEB-0231             
1 48782U 21045R   23311.42944033  .00000056  00000+0  11513-3 0  9994
2 48782  87.8978  88.8899 0001340  86.6804 273.4480 13.15549102119075
ONEWEB-0234             
1 48783U 21045S   23312.36510789  .00000329  00000+0  84036-3 0  9999
2 48783  87.8970  88.6813 0002386 131.8309 228.3025 13.15548091120461
ONEWEB-0238             
1 48784U 21045T   23311.76775949  .00000002  00000+0 -29891-4 0  9992
2 48784  87.8969  88.8107 0001568 101.7753 258.3553 13.15547257120280
ONEWEB-0240             
1 48785U 21045U   23311.79230938 -.00000167  00000+0 -47659-3 0  9994
2 48785  87.8970  88.7811 0001015  98.7790 261.3455 13.15549931120306
ONEWEB-0246             
1 48786U 21045V   23312.09179541  .00000226  00000+0  56596-3 0  9995
2 48786  87.8973  88.7231 0001294  80.8711 279.2566 13.15546867120216
ONEWEB-0210             
1 48787U 21045W   23312.14249592  .00000309  00000+0  78701-3 0  9990
2 48787  87.8968  88.7210 0001666  67.8342 292.2965 13.15555825120274
ONEWEB-0214             
1 48788U 21045X   23312.15200987 -.00000110  00000+0 -32727-3 0  9997
2 48788  87.8972  88.7077 0001860  68.0515 292.0812 13.15551894120239
ONEWEB-0221             
1 48789U 21045Y   23312.38650661 -.00005645  00000+0 -15032-1 0  9997
2 48789  87.8970  88.6730 0001119 100.4715 259.6541 13.15575156120373
ONEWEB-0213             
1 48790U 21045Z   23312.45146441  .00001301  00000+0  34206-2 0  9991
2 48790  87.8950  88.6780 0001495  83.8389 276.2912 13.15557754120434
ONEWEB-0212             
1 48791U 21045AA  23311.82557864  .00000060  00000+0  12617-3 0  9991
2 48791  87.8971  88.7838 0001627 100.2891 259.8422 13.15553649120355
ONEWEB-0227             
1 48792U 21045AB  23311.43896213  .00000166  00000+0  40816-3 0  9992
2 48792  87.8969  88.8756 0001383  97.7860 262.3428 13.15552124119112
ONEWEB-0226             
1 48793U 21045AC  23312.42151182 -.00020757  00000+0 -55415-1 0  9991
2 48793  87.8972  88.6879 0003953 109.4097 250.7461 13.15400887120331
ONEWEB-0224             
1 48794U 21045AD  23312.46095955 -.00001251  00000+0 -33581-2 0  9990
2 48794  87.8978  88.6872 0001519 110.1253 250.0041 13.15556343120268
ONEWEB-0233             
1 48795U 21045AE  23312.45383267  .00003013  00000+0  79693-2 0  9996
2 48795  87.8923  88.7280 0001460  87.5474 272.5824 13.15530623120272
ONEWEB-0190             
1 48796U 21045AF  23312.14882610  .00000272  00000+0  68852-3 0  9999
2 48796  87.8966  88.7355 0001135  44.7279 315.3943 13.15553324120316
ONEWEB-0236             
1 48797U 21045AG  23311.78597988 -.00000091  00000+0 -27594-3 0  9999
2 48797  87.8979  88.7871 0001409  98.1424 261.9866 13.15550551120154
ONEWEB-0248             
1 48798U 21045AH  23311.79864807 -.00000125  00000+0 -36532-3 0  9998
2 48798  87.8969  88.7947 0000703 105.3439 254.7769 13.15548579120318
ONEWEB-0225             
1 48799U 21045AJ  23311.44055470  .00000706  00000+0  18413-2 0  9999
2 48799  87.8964  88.8752 0001069  84.5287 275.5965 13.15547339119156
ONEWEB-0215             
1 48800U 21045AK  23312.39919958 -.00002746  00000+0 -73339-2 0  9993
2 48800  87.8966  88.6647 0000870  78.7611 281.3616 13.15528748120273
ONEWEB-0216             
1 48801U 21045AL  23312.10445137 -.00000094  00000+0 -28418-3 0  9999
2 48801  87.8970  88.7605 0001654  83.9054 276.2265 13.15544860120247
ONEWEB-0239             
1 48802U 21045AM  23311.80498484 -.00000108  00000+0 -32151-3 0  9994
2 48802  87.8980  88.7762 0000592  94.6639 265.4558 13.15550837120269
ONEWEB-0249             
1 48967U 21060A   23311.58219444 -.00003364  00000+0 -88342-2 0  9994
2 48967  87.9081  58.3627 0001747  93.0500 267.0831 13.16611162114265
ONEWEB-0250             
1 48968U 21060B   23311.81440511 -.00000040  00000+0 -13697-3 0  9992
2 48968  87.9082  58.3015 0001515 102.1887 257.9413 13.16597631115563
ONEWEB-0252             
1 48970U 21060D   23312.06985923  .00000230  00000+0  56878-3 0  9991
2 48970  87.9083  58.2590 0002003  83.7731 276.3628 13.16596747115660
ONEWEB-0253             
1 48971U 21060E   23311.83130306 -.00000044  00000+0 -14992-3 0  9999
2 48971  87.9009  58.3511 0001360  92.7620 267.3667 13.16596036115557
ONEWEB-0254             
1 48972U 21060F   23312.37171516  .00000169  00000+0  40791-3 0  9990
2 48972  87.9085  58.1886 0001531  94.7261 265.4044 13.16598655115623
ONEWEB-0255             
1 48973U 21060G   23312.33372674  .00000008  00000+0 -12150-4 0  9997
2 48973  87.9084  58.2315 0001592 103.3120 256.8188 13.16596856115702
ONEWEB-0256             
1 48974U 21060H   23311.59909668  .00000316  00000+0  79377-3 0  9998
2 48974  87.9078  58.3799 0001813  97.1362 262.9975 13.16594070114287
ONEWEB-0257             
1 48975U 21060J   23311.55687406 -.00000046  00000+0 -15283-3 0  9996
2 48975  87.9078  58.3603 0001658  93.2255 266.9065 13.16593954114236
ONEWEB-0258             
1 48976U 21060K   23311.55898509 -.00000969  00000+0 -25677-2 0  9996
2 48976  87.9083  58.3893 0001624 101.7633 258.3680 13.16584136114243
ONEWEB-0259             
1 48977U 21060L   23312.00862186 -.00000344  00000+0 -93394-3 0  9999
2 48977  87.9084  58.2848 0001445 111.5680 248.5604 13.16595160115625
ONEWEB-0260             
1 48978U 21060M   23312.38228385  .00000142  00000+0  33663-3 0  9995
2 48978  87.9086  58.2408 0002086  81.0492 279.0874 13.16594615115648
ONEWEB-0261             
1 48979U 21060N   23312.04451557  .00000095  00000+0  21599-3 0  9990
2 48979  87.9078  58.2992 0001216  83.2758 276.8511 13.16594799115670
ONEWEB-0262             
1 48980U 21060P   23311.79753947 -.00000135  00000+0 -38628-3 0  9999
2 48980  87.9084  58.3133 0001112 109.2122 250.9129 13.16596710115602
ONEWEB-0263             
1 48981U 21060Q   23311.82918773 -.00000031  00000+0 -11596-3 0  9994
2 48981  87.9078  58.3215 0001156  91.7649 268.3614 13.16594258115577
ONEWEB-0264             
1 48982U 21060R   23311.56215385 -.00000002  00000+0 -38132-4 0  9999
2 48982  87.9087  58.3805 0001595 100.0509 260.0802 13.16596443114248
ONEWEB-0266             
1 48984U 21060T   23312.04029464  .00000150  00000+0  35880-3 0  9994
2 48984  87.9090  58.2701 0001631 105.2469 254.8843 13.16593330115598
ONEWEB-0267             
1 48985U 21060U   23311.82286933  .00000219  00000+0  53878-3 0  9999
2 48985  87.9081  58.3144 0001521  86.6019 273.5286 13.16594280115563
ONEWEB-0268             
1 48986U 21060V   23311.79119519 -.00000022  00000+0 -90069-4 0  9999
2 48986  87.9086  58.3245 0001673  98.1465 261.9856 13.16590454115824
